NORAD_CAT_ID,OBJECT_NAME,OBJECT_TYPE,EPOCH,MEAN_MOTION,ECCENTRICITY,INCLINATION,RA_OF_ASC_NODE,ARG_OF_PERICENTER,MEAN_ANOMALY,BSTAR,MEAN_MOTION_DOT,MEAN_MOTION_DDOT,TLE_LINE0,TLE_LINE1,TLE_LINE2,SEMIMAJOR_AXIS,PERIOD,APOGEE,PERIGEE,DECAYED
50804.0,STARLINK-3323,PAYLOAD,2022-11-25 18:00:02,15.08842245,0.0002062,53.2178,145.8743,51.2228,308.8949,7.2687e-05,8.69e-06,0.0,0 STARLINK-3323,1 50804U 22001B   22329.75003011  .00000869  00000-0  72687-4 0  9994,2 50804  53.2178 145.8743 0002062  51.2228 308.8949 15.08842245 50642,6917.874,95.437,541.165,538.312,0.0
50804.0,STARLINK-3323,PAYLOAD,2022-11-25 21:10:48,15.08843619,0.0002077,53.2176,145.2794,50.7464,309.3712,8.4715e-05,1.06e-05,0.0,0 STARLINK-3323,1 50804U 22001B   22329.88250929  .00001060  00000-0  84715-4 0  9999,2 50804  53.2176 145.2794 0002077  50.7464 309.3712 15.08843619 49415,6917.869000000002,95.437,541.1709999999998,538.297,0.0
50804.0,STARLINK-3323,PAYLOAD,2022-11-26 11:29:16,15.08843237,0.0001957,53.2176,142.6027,48.3397,311.7763,0.00013666,1.888e-05,0.0,0 STARLINK-3323,1 50804U 22001B   22330.47866734  .00001888  00000-0  13666-3 0  9997,2 50804  53.2176 142.6027 0001957  48.3397 311.7763 15.08843237 49508,6917.87,95.437,541.089,538.382,0.0
50804.0,STARLINK-3323,PAYLOAD,2022-11-26 17:50:49,15.08845843,0.0001941,53.2173,141.4133,46.7314,313.384,0.00015984,2.257e-05,0.0,0 STARLINK-3323,1 50804U 22001B   22330.74362441  .00002257  00000-0  15984-3 0  9999,2 50804  53.2173 141.4133 0001941  46.7314 313.3840 15.08845843 49547,6917.863,95.437,541.07,538.385,0.0
50804.0,STARLINK-3323,PAYLOAD,2022-11-26 21:01:35,15.08843554,0.0002079,53.2174,140.8188,50.8527,309.265,0.00021351,3.112e-05,0.0,0 STARLINK-3323,1 50804U 22001B   22330.87610497  .00003112  00000-0  21351-3 0  9996,2 50804  53.2174 140.8188 0002079  50.8527 309.2650 15.08843554 50818,6917.87,95.437,541.173,538.2959999999998,0.0
50804.0,STARLINK-3323,PAYLOAD,2022-11-27 11:20:04,15.08837503,0.000218,53.2173,138.1426,53.4061,306.7132,0.00031413,4.714e-05,0.0,0 STARLINK-3323,1 50804U 22001B   22331.47226906  .00004714  00000-0  31413-3 0  9990,2 50804  53.2173 138.1426 0002180  53.4061 306.7132 15.08837503 49651,6917.888000000001,95.438,541.261,538.245,0.0
50804.0,STARLINK-3323,PAYLOAD,2022-11-27 17:41:37,15.08829295,0.000203,53.2173,136.953,52.657,307.4607,0.0003471,5.239e-05,0.0,0 STARLINK-3323,1 50804U 22001B   22331.73723468  .00005239  00000-0  34710-3 0  9990,2 50804  53.2173 136.9530 0002030  52.6570 307.4607 15.08829295 50941,6917.913000000001,95.438,541.182,538.374,0.0
50804.0,STARLINK-3323,PAYLOAD,2022-11-27 20:52:23,15.08844989,0.0002059,53.2175,136.3585,49.4242,310.6929,5.7125e-06,-1.97e-06,0.0,0 STARLINK-3323,1 50804U 22001B   22331.86971142 -.00000197  00000-0  57125-5 0  9994,2 50804  53.2175 136.3585 0002059  49.4242 310.6929 15.08844989 49711,6917.865,95.437,541.155,538.306,0.0
50804.0,STARLINK-3323,PAYLOAD,2022-11-28 11:10:50,15.08849203,0.0002049,53.2172,133.68200000000002,49.2533,310.8636,1.7125e-05,-1.6e-07,0.0,0 STARLINK-3323,1 50804U 22001B   22332.46586503 -.00000016  00000-0  17125-4 0  9999,2 50804  53.2172 133.6820 0002049  49.2533 310.8636 15.08849203 49801,6917.852,95.437,541.135,538.3,0.0
50804.0,STARLINK-3323,PAYLOAD,2022-11-28 17:32:22,15.08851728,0.0002061,53.2174,132.4927,48.8961,311.2209,1.1761e-05,-1.01e-06,0.0,0 STARLINK-3323,1 50804U 22001B   22332.73082141 -.00000101  00000-0  11761-4 0  9993,2 50804  53.2174 132.4927 0002061  48.8961 311.2209 15.08851728 51092,6917.845,95.437,541.135,538.284,0.0
50804.0,STARLINK-3323,PAYLOAD,2022-11-29 11:01:37,15.08845978,0.0002034,53.2176,129.2212,49.8021,310.3149,8.8471e-05,1.12e-05,0.0,0 STARLINK-3323,1 50804U 22001B   22333.45945665  .00001120  00000-0  88471-4 0  9995,2 50804  53.2176 129.2212 0002034  49.8021 310.3149 15.08845978 49958,6917.861999999999,95.437,541.134,538.32,0.0
50804.0,STARLINK-3323,PAYLOAD,2022-11-29 17:23:10,15.08840122,0.0002009,53.2177,128.0315,47.5323,312.5838,3.0854e-05,2.03e-06,0.0,0 STARLINK-3323,1 50804U 22001B   22333.72442203  .00000203  00000-0  30854-4 0  9998,2 50804  53.2177 128.0315 0002009  47.5323 312.5838 15.08840122 51242,6917.88,95.438,541.135,538.355,0.0
50804.0,STARLINK-3323,PAYLOAD,2022-11-30 10:52:24,15.08845797,0.0001923,53.2177,124.7603,48.4766,311.6391,5.8066e-06,-1.96e-06,0.0,0 STARLINK-3323,1 50804U 22001B   22334.45305767 -.00000196  00000-0  58066-5 0  9990,2 50804  53.2177 124.7603 0001923  48.4766 311.6391 15.08845797 50101,6917.863,95.437,541.058,538.3969999999998,0.0
50804.0,STARLINK-3323,PAYLOAD,2022-12-01 02:46:16,15.08836101,0.0002116,53.2177,121.7867,51.2197,308.8984,-4.7793e-05,-1.049e-05,0.0,0 STARLINK-3323,1 50804U 22001B   22335.11546435 -.00001049  00000-0 -47793-4 0  9996,2 50804  53.2177 121.7867 0002116  51.2197 308.8984 15.08836101 51459,6917.892,95.438,541.221,538.293,0.0
50804.0,STARLINK-3323,PAYLOAD,2022-12-01 10:43:11,15.08834205,0.0001967,53.2177,120.3006,46.3445,313.771,3.3756999999999995e-05,2.49e-06,0.0,0 STARLINK-3323,1 50804U 22001B   22335.44666325  .00000249  00000-0  33757-4 0  9997,2 50804  53.2177 120.3006 0001967  46.3445 313.7710 15.08834205 50255,6917.898,95.438,541.124,538.4019999999998,0.0
50804.0,STARLINK-3323,PAYLOAD,2022-12-01 17:04:43,15.08838484,0.0001961,53.2179,119.1112,47.4622,312.6535,6.7109e-05,7.8e-06,0.0,0 STARLINK-3323,1 50804U 22001B   22335.71162016  .00000780  00000-0  67109-4 0  9993,2 50804  53.2179 119.1112 0001961  47.4622 312.6535 15.08838484 50294,6917.885,95.438,541.107,538.393,0.0
50804.0,STARLINK-3323,PAYLOAD,2022-12-02 10:33:57,15.08849376,0.0001991,53.2181,115.8405,48.0057,312.1104,9.6823e-05,1.253e-05,0.0,0 STARLINK-3323,1 50804U 22001B   22336.44025230  .00001253  00000-0  96823-4 0  9991,2 50804  53.2181 115.8405 0001991  48.0057 312.1104 15.08849376 51657,6917.852,95.437,541.094,538.339,0.0
50804.0,STARLINK-3323,PAYLOAD,2022-12-02 18:30:53,15.08841654,0.0002039,53.218,114.3533,54.7037,305.4145,7.7886e-05,9.52e-06,0.0,0 STARLINK-3323,1 50804U 22001B   22336.77145761  .00000952  00000-0  77886-4 0  9992,2 50804  53.2180 114.3533 0002039  54.7037 305.4145 15.08841654 51705,6917.875,95.437,541.151,538.33,0.0
50804.0,STARLINK-3323,PAYLOAD,2022-12-03 08:49:23,15.08829187,0.000201,53.2171,111.6774,43.6435,316.4716,2.9004e-05,1.73e-06,0.0,0 STARLINK-3323,1 50804U 22001B   22337.36762847  .00000173  00000-0  29004-4 0  9992,2 50804  53.2171 111.6774 0002010  43.6435 316.4716 15.08829187 51792,6917.913000000001,95.438,541.169,538.388,0.0
50804.0,STARLINK-3323,PAYLOAD,2022-12-03 13:35:32,15.0882905,0.000205,53.2177,110.7855,44.9543,315.1615,9.6769e-06,-1.34e-06,0.0,0 STARLINK-3323,1 50804U 22001B   22337.56635026 -.00000134  00000-0  96769-5 0  9993,2 50804  53.2177 110.7855 0002050  44.9543 315.1615 15.08829050 50574,6917.9140000000025,95.438,541.197,538.361,0.0
50804.0,STARLINK-3323,PAYLOAD,2022-12-03 16:46:19,15.08830378,0.0002098,53.219,110.1923,45.7898,314.3266,-3.407e-05,-8.3e-06,0.0,0 STARLINK-3323,1 50804U 22001B   22337.69883138 -.00000830  00000-0 -34070-4 0  9996,2 50804  53.2190 110.1923 0002098  45.7898 314.3266 15.08830378 50593,6917.91,95.438,541.226,538.323,0.0
50804.0,STARLINK-3323,PAYLOAD,2022-12-04 02:18:37,15.08838297,0.0001965,53.2182,108.4068,43.7375,316.3773,9.8388e-06,-1.32e-06,0.0,0 STARLINK-3323,1 50804U 22001B   22338.09626554 -.00000132  00000-0  98388-5 0  9995,2 50804  53.2182 108.4068 0001965  43.7375 316.3773 15.08838297 51903,6917.886,95.438,541.11,538.391,0.0
50804.0,STARLINK-3323,PAYLOAD,2022-12-04 08:40:09,15.08842417,0.0001988,53.2182,107.2172,44.2045,315.9106,5.7094000000000025e-06,-1.97e-06,0.0,0 STARLINK-3323,1 50804U 22001B   22338.36122348 -.00000197  00000-0  57094-5 0  9997,2 50804  53.2182 107.2172 0001988  44.2045 315.9106 15.08842417 50690,6917.873000000001,95.437,541.113,538.363,0.0
50804.0,STARLINK-3323,PAYLOAD,2022-12-04 19:47:51,15.08843206,0.0002034,53.2174,105.1362,38.1027,322.0108,8.1354e-05,1.007e-05,0.0,0 STARLINK-3323,1 50804U 22001B   22338.82490137  .00001007  00000-0  81354-4 0  9997,2 50804  53.2174 105.1362 0002034  38.1027 322.0108 15.08843206 50760,6917.871,95.437,541.143,538.328,0.0
50804.0,STARLINK-3323,PAYLOAD,2022-12-05 08:30:56,15.08836974,0.0001964,53.2176,102.7572,41.7666,318.3475,0.00017564,2.508e-05,0.0,0 STARLINK-3323,1 50804U 22001B   22339.35482400  .00002508  00000-0  17564-3 0  9998,2 50804  53.2176 102.7572 0001964  41.7666 318.3475 15.08836974 52095,6917.89,95.438,541.113,538.396,0.0
50804.0,STARLINK-3323,PAYLOAD,2022-12-05 14:52:28,15.08846487,0.0001945,53.2178,101.5676,42.6374,317.4769,0.00021181,3.085e-05,0.0,0 STARLINK-3323,1 50804U 22001B   22339.61977812  .00003085  00000-0  21181-3 0  9994,2 50804  53.2178 101.5676 0001945  42.6374 317.4769 15.08846487 52135,6917.861,95.437,541.071,538.38,0.0
50804.0,STARLINK-3323,PAYLOAD,2022-12-05 19:38:38,15.08853264,0.0002108,53.2165,100.6759,40.007,320.1077,0.00034643,5.232e-05,0.0,0 STARLINK-3323,1 50804U 22001B   22339.81849834  .00005232  00000-0  34643-3 0  9991,2 50804  53.2165 100.6759 0002108  40.0070 320.1077 15.08853264 50918,6917.84,95.437,541.163,538.247,0.0
50804.0,STARLINK-3323,PAYLOAD,2022-12-06 11:32:29,15.08844043,0.0002082,53.2169,97.7011,45.6919,314.4244,1.9704e-05,2.5e-07,0.0,0 STARLINK-3323,1 50804U 22001B   22340.48089917  .00000025  00000-0  19704-4 0  9991,2 50804  53.2169  97.7011 0002082  45.6919 314.4244 15.08844043 51012,6917.868,95.437,541.173,538.293,0.0
50804.0,STARLINK-3323,PAYLOAD,2022-12-06 17:54:03,15.08831115,0.0002164,53.2188,96.5143,42.0517,318.0641,-6.4096e-05,-1.308e-05,0.0,0 STARLINK-3323,1 50804U 22001B   22340.74587182 -.00001308  00000-0 -64096-4 0  9998,2 50804  53.2188  96.5143 0002164  42.0517 318.0641 15.08831115 52302,6917.908,95.438,541.27,538.276,0.0
